ISS (ZARYA)
1 25544U 98067A   25146.50000000  .00016717  00000-0  30000-4 0  9994
2 25544  51.6416 285.8827 0006710  51.1782  59.0987 15.50145335423456
HUBBLE SPACE TELESCOPE
1 20580U 90037B   25146.50000000  .00000524  00000-0  20000-4 0  9999
2 20580  28.4700 315.3000 0003000 280.0000 120.0000 14.97310000123456
STARLINK-1007
1 44713U 19074E   25146.50000000  .00000572  00000-0  43861-4 0  9992
2 44713  53.0540 100.0000 0002000 270.0000 150.0000 15.12170000123456
STARLINK-1008
1 44714U 19074F   25146.50000000  .00000601  00000-0  45621-4 0  9993
2 44714  53.0538 100.5000 0002100 275.0000 155.0000 15.12180000123457
STARLINK-1452
1 45063U 20057AS  25146.50000000  .00000489  00000-0  37714-4 0  9995
2 45063  53.0542 200.0000 0001800 260.0000 140.0000 15.12050000123458
SPACEX TDRS M
1 41007U 10062B   25146.50000000  .00000100  00000-0  10000-4 0  9991
2 41007   5.0000 100.0000 0001000 270.0000 180.0000  1.00270000123459
NOAA 15
1 25338U 98030A   25146.50000000  .00000136  00000-0  70000-4 0  9990
2 25338  98.6800 200.0000 0010000 100.0000 260.0000 14.25410000123460
NOAA 18
1 28654U 05018A   25146.50000000  .00000178  00000-0  10000-3 0  9998
2 28654  99.0120 250.0000 0010000 120.0000 240.0000 14.11340000123461
COSMOS 2251 DEBRIS
1 33775U 93036E   25146.50000000  .00000000  00000-0 -20000-4 0  9997
2 33775  74.0300 180.0000 0001000 300.0000  60.0000 14.30000000123462
SL-16 DEBRIS
1 26861U 94007E   25146.50000000  .00000000  00000-0 -30000-4 0  9996
2 26861  71.0000 220.0000 0001000 310.0000  50.0000 13.75000000123463
TESS
1 43435U 14037A   25146.50000000  .00000200  00000-0  20000-4 0  9992
2 43435  29.9400 315.0000 0001000 285.0000  75.0000 14.97000000123464
JUNO
1 37773U 11040A   25146.50000000  .00000050  00000-0  10000-4 0  9993
2 37773   3.8800 100.0000 0001000 270.0000 180.0000 11.85000000123465
GPS IIF-10
1 40294U 14070A   25146.50000000  .00000030  00000-0  00000-3 0  9994
2 40294  55.0000  50.0000 0001000 280.0000  80.0000  2.00560000123466
GALILEO 23
1 43565U 19046F   25146.50000000  .00000012  00000-0  00000-3 0  9995
2 43565  57.0000 150.0000 0001000 275.0000  85.0000  1.70400000123467